OBJECT_NAME,OBJECT_ID,EPOCH,MEAN_MOTION,ECCENTRICITY,INCLINATION,RA_OF_ASC_NODE,ARG_OF_PERICENTER,MEAN_ANOMALY,EPHEMERIS_TYPE,CLASSIFICATION_TYPE,NORAD_CAT_ID,ELEMENT_SET_NO,REV_AT_EPOCH,BSTAR,MEAN_MOTION_DOT,MEAN_MOTION_DDOT
SWARM A,2013-067B,2026-06-17T11:27:58.029408,15.50958386,.0003009,87.3321,56.1340,95.0495,265.1110,0,U,39452,999,70629,.14594E-3,.8498E-4,0
SWARM C,2013-067C,2026-06-17T11:27:48.279168,15.50956607,.0003002,87.3321,54.7150,95.1482,265.0122,0,U,39453,999,70625,.1431E-3,.8332E-4,0
BRITE-CA1 (TORONTO),2014-033L,2026-06-17T07:25:46.185312,14.72676789,.0077216,97.9739,297.2352,276.6204,82.6219,0,U,40020,999,64223,.94721E-4,.578E-5,0
OCO 2,2014-035A,2026-06-17T11:58:18.886944,14.57111398,.0001503,98.2017,109.7871,84.9869,275.1501,0,U,40059,999,63609,.78427E-4,.308E-5,0
BRITE-PL2 (HEWELIUSZ),2014-049B,2026-06-17T07:21:00.330048,14.94593460,.0015287,97.9098,280.3070,108.1430,252.1456,0,U,40119,999,64146,.14142E-3,.1474E-4,0
MMS 1,2015-011A,2026-06-17T14:00:01.000224,0.28316329,.8325142,72.2005,348.7760,167.4676,338.9027,0,U,40482,999,138,0,-.758E-5,0
MMS 2,2015-011B,2026-06-17T14:00:01.000224,0.28316304,.8325927,72.2007,348.7782,167.4732,338.8915,0,U,40483,999,138,0,-.758E-5,0
MMS 3,2015-011C,2026-06-17T14:00:01.000224,0.28316309,.832472,72.1998,348.7785,167.4756,338.8754,0,U,40484,999,138,0,-.758E-5,0
MMS 4,2015-011D,2026-06-17T14:00:01.000224,0.28317364,.8324658,72.1995,348.7789,167.4760,338.8747,0,U,40485,999,138,0,-.757E-5,0
ASTROSAT,2015-052A,2026-06-17T00:34:51.917664,14.82507303,.0007811,5.9955,156.5222,29.1364,330.9199,0,U,40930,999,57980,.9147E-4,.1422E-4,0
DAMPE,2015-078A,2026-06-17T11:53:09.467808,15.30786290,.0013808,97.4548,173.9638,75.9959,284.2816,0,U,41173,999,58459,.3915E-4,.1089E-4,0
PISAT,2016-059B,2026-06-17T11:37:48.628704,14.68983786,.0028408,97.8179,168.9246,201.7782,158.2218,0,U,41784,999,51978,.11936E-3,.656E-5,0
HXMT (HUIYAN),2017-034A,2026-06-17T12:41:47.428224,15.18478619,.0030629,43.0125,181.1377,149.3559,210.9086,0,U,42758,999,49771,.10687E-3,.2022E-4,0
FLYING LAPTOP,2017-042G,2026-06-17T12:27:05.458752,15.01148007,.0019628,97.4690,324.0383,120.6225,239.6938,0,U,42831,999,48650,.24168E-3,.3051E-4,0
ZHANGHENG 1-01 (CSES-1),2018-015C,2026-06-17T12:48:37.503360,15.20814841,.0017051,97.6871,334.1976,265.0914,94.8374,0,U,43194,999,46469,.26665E-3,.583E-4,0
SALSAT,2020-068K,2026-06-17T11:20:29.672160,15.29803093,.0008034,97.8846,171.5545,306.9379,53.1123,0,U,46495,999,31540,.2181E-3,.6216E-4,0
IXPE,2021-121A,2026-06-17T12:00:02.998944,15.10253319,.0007447,0.2303,315.5180,81.1679,138.6256,0,U,49954,999,561,.42724E-3,.8128E-4,0
SMILE,2026-109A,2026-06-07T09:11:54.544416,7.54049028,.3310191,69.9787,209.3069,288.5544,45.7342,0,U,69123,999,248,-.36778E-3,-.41E-6,0
